NORAD_CAT_ID,OBJECT_NAME,OBJECT_TYPE,EPOCH,MEAN_MOTION,ECCENTRICITY,INCLINATION,RA_OF_ASC_NODE,ARG_OF_PERICENTER,MEAN_ANOMALY,BSTAR,MEAN_MOTION_DOT,MEAN_MOTION_DDOT,TLE_LINE0,TLE_LINE1,TLE_LINE2,SEMIMAJOR_AXIS,PERIOD,APOGEE,PERIGEE,DECAYED
53243.0,STARLINK-4047,PAYLOAD,2022-12-04 10:38:45,15.08832899,0.0002329,53.2161,151.8204,51.967,308.1532,0.00012463,1.695e-05,0.0,0 STARLINK-4047,1 53243U 22086B   22338.44358659  .00001695  00000-0  12463-3 0  9997,2 53243  53.2161 151.8204 0002329  51.9670 308.1532 15.08832899 21426,6917.901999999999,95.438,541.378,538.156,0.0
53243.0,STARLINK-4047,PAYLOAD,2022-12-04 18:35:41,15.08834969,0.0002349,53.2162,150.3337,52.4165,307.704,0.00013088,1.795e-05,0.0,0 STARLINK-4047,1 53243U 22086B   22338.77478680  .00001795  00000-0  13088-3 0  9995,2 53243  53.2162 150.3337 0002349  52.4165 307.7040 15.08834969 20951,6917.896,95.438,541.386,538.136,0.0
53243.0,STARLINK-4047,PAYLOAD,2022-12-05 12:04:55,15.08844439,0.0002364,53.2165,147.0624,52.3846,307.736,0.00014751,2.060000000000001e-05,0.0,0 STARLINK-4047,1 53243U 22086B   22339.50342269  .00002060  00000-0  14751-3 0  9994,2 53243  53.2165 147.0624 0002364  52.3846 307.7360 15.08844439 21586,6917.8669999999975,95.437,541.367,538.096,0.0
53243.0,STARLINK-4047,PAYLOAD,2022-12-05 18:26:27,15.08848522,0.0002374,53.2166,145.8731,53.0179,307.103,0.00017825,2.55e-05,0.0,0 STARLINK-4047,1 53243U 22086B   22339.76837940  .00002550  00000-0  17825-3 0  9996,2 53243  53.2166 145.8731 0002374  53.0179 307.1030 15.08848522 21103,6917.854,95.437,541.362,538.077,0.0
53243.0,STARLINK-4047,PAYLOAD,2022-12-06 10:20:18,15.0885504,0.0002645,53.216,142.8996,54.3306,305.7932,0.00014893,2.084e-05,0.0,0 STARLINK-4047,1 53243U 22086B   22340.43077306  .00002084  00000-0  14893-3 0  9998,2 53243  53.2160 142.8996 0002645  54.3306 305.7932 15.08855040 21720,6917.834,95.437,541.529,537.87,0.0
53243.0,STARLINK-4047,PAYLOAD,2022-12-06 15:06:28,15.0884785,0.0002492,53.2164,142.0072,54.7429,305.3797,4.3775e-05,4.08e-06,0.0,0 STARLINK-4047,1 53243U 22086B   22340.62949531  .00000408  00000-0  43775-4 0  9997,2 53243  53.2164 142.0072 0002492  54.7429 305.3797 15.08847850 21759,6917.856,95.437,541.445,537.997,0.0
53243.0,STARLINK-4047,PAYLOAD,2022-12-06 18:17:14,15.08845659,0.0002485,53.2163,141.4124,54.4521,305.6702,2.1108e-06,-2.55e-06,0.0,0 STARLINK-4047,1 53243U 22086B   22340.76197558 -.00000255  00000-0  21108-5 0  9994,2 53243  53.2163 141.4124 0002485  54.4521 305.6702 15.08845659 21250,6917.863,95.437,541.447,538.009,0.0
53243.0,STARLINK-4047,PAYLOAD,2022-12-07 19:43:24,15.08852266,0.0002434,53.2169,136.6544,51.4191,308.7018,2.9772e-05,1.86e-06,0.0,0 STARLINK-4047,1 53243U 22086B   22341.82181013  .00000186  00000-0  29772-4 0  9997,2 53243  53.2169 136.6544 0002434  51.4191 308.7018 15.08852266 21933,6917.843000000003,95.437,541.3919999999998,538.024,0.0
53243.0,STARLINK-4047,PAYLOAD,2022-12-08 03:40:20,15.0884469,0.0002418,53.2175,135.1674,57.6995,302.4231,-2.5276e-05,-6.91e-06,0.0,0 STARLINK-4047,1 53243U 22086B   22342.15301411 -.00000691  00000-0 -25276-4 0  9998,2 53243  53.2175 135.1674 0002418  57.6995 302.4231 15.08844690 21468,6917.866,95.437,541.404,538.058,0.0
53243.0,STARLINK-4047,PAYLOAD,2022-12-08 13:12:39,15.08838424,0.00026,53.2162,133.3846,57.7419,302.3825,-0.0001302,-2.36e-05,0.0,0 STARLINK-4047,1 53243U 22086B   22342.55046153 -.00002360  00000-0 -13020-3 0  9999,2 53243  53.2162 133.3846 0002600  57.7419 302.3825 15.08838424 22041,6917.885,95.438,541.549,537.952,0.0
53243.0,STARLINK-4047,PAYLOAD,2022-12-08 19:34:12,15.08832706,0.0002308,53.2169,132.1945,53.5304,306.59,-4.5606e-06,-3.61e-06,0.0,0 STARLINK-4047,1 53243U 22086B   22342.81542262 -.00000361  00000-0 -45606-5 0  9996,2 53243  53.2169 132.1945 0002308  53.5304 306.5900 15.08832706 22088,6917.903,95.438,541.364,538.1709999999998,0.0
53243.0,STARLINK-4047,PAYLOAD,2022-12-09 09:52:40,15.08841536,0.0002335,53.2171,129.518,52.8988,307.2217,6.1795000000000016e-06,-1.9e-06,0.0,0 STARLINK-4047,1 53243U 22086B   22343.41157837 -.00000190  00000-0  61795-5 0  9999,2 53243  53.2171 129.5180 0002335  52.8988 307.2217 15.08841536 22172,6917.876,95.437,541.356,538.125,0.0
53243.0,STARLINK-4047,PAYLOAD,2022-12-10 14:29:36,15.088181,6.28e-05,53.2171,124.168,345.525,14.5724,0.00060279,9.313e-05,0.0,0 STARLINK-4047,1 53243U 22086B   22344.60389491  .00009313  00000-0  60279-3 0  9993,2 53243  53.2171 124.1680 0000628 345.5250  14.5724 15.08818100 21839,6917.946999999999,95.439,540.247,539.378,0.0
53243.0,STARLINK-4047,PAYLOAD,2022-12-10 16:04:59,15.08836627,0.0002519,53.2165,123.8713,39.3488,320.7687,0.00019289,2.783e-05,0.0,0 STARLINK-4047,1 53243U 22086B   22344.67013734  .00002783  00000-0  19289-3 0  9993,2 53243  53.2165 123.8713 0002519  39.3488 320.7687 15.08836627 22360,6917.891,95.438,541.498,538.013,0.0
53243.0,STARLINK-4047,PAYLOAD,2022-12-10 20:51:08,15.08843302,0.0002095,53.2167,122.9758,49.093,311.0243,0.0001949,2.815e-05,0.0,0 STARLINK-4047,1 53243U 22086B   22344.86885287  .00002815  00000-0  19490-3 0  9994,2 53243  53.2167 122.9758 0002095  49.0930 311.0243 15.08843302 21874,6917.87,95.437,541.185,538.286,0.0
53243.0,STARLINK-4047,PAYLOAD,2022-12-11 12:45:00,15.08833248,0.0001349,53.2163,120.0009,34.824,325.284,0.00028167,4.197e-05,0.0,0 STARLINK-4047,1 53243U 22086B   22345.53125363  .00004197  00000-0  28167-3 0  9997,2 53243  53.2163 120.0009 0001349  34.8240 325.2840 15.08833248 22492,6917.901,95.438,540.6990000000002,538.8330000000002,0.0
53243.0,STARLINK-4047,PAYLOAD,2022-12-11 14:20:24,15.08808406,0.0001184,53.2169,119.703,41.6095,318.4987,0.0006659,0.00010317,0.0,0 STARLINK-4047,1 53243U 22086B   22345.59750376  .00010317  00000-0  66590-3 0  9994,2 53243  53.2169 119.7030 0001184  41.6095 318.4987 15.08808406 21985,6917.977,95.44,540.661,539.023,0.0
53243.0,STARLINK-4047,PAYLOAD,2022-12-12 09:25:00,15.08843545,0.0002184,53.2165,116.1364,56.6742,303.4459,5.8705e-05,6.46e-06,0.0,0 STARLINK-4047,1 53243U 22086B   22346.39237242  .00000646  00000-0  58705-4 0  9999,2 53243  53.2165 116.1364 0002184  56.6742 303.4459 15.08843545 22104,6917.87,95.437,541.245,538.224,0.0
53243.0,STARLINK-4047,PAYLOAD,2022-12-12 12:35:47,15.08847923,0.0001954,53.2169,115.5423,62.8633,297.2558,2.8573e-05,1.67e-06,0.0,0 STARLINK-4047,1 53243U 22086B   22346.52484971  .00000167  00000-0  28573-4 0  9995,2 53243  53.2169 115.5423 0001954  62.8633 297.2558 15.08847923 22642,6917.856,95.437,541.073,538.369,0.0
53243.0,STARLINK-4047,PAYLOAD,2022-12-13 09:15:48,15.08837658,0.0002128,53.2177,111.6767,48.3502,311.7673,2.3079e-05,7.9e-07,0.0,0 STARLINK-4047,1 53243U 22086B   22347.38597612  .00000079  00000-0  23079-4 0  9995,2 53243  53.2177 111.6767 0002128  48.3502 311.7673 15.08837658 22258,6917.888000000001,95.438,541.225,538.28,0.0
53243.0,STARLINK-4047,PAYLOAD,2022-12-13 15:37:20,15.08838948,0.000217,53.2182,110.4875,46.5012,313.6161,7.757899999999999e-06,-1.65e-06,0.0,0 STARLINK-4047,1 53243U 22086B   22347.65093582 -.00000165  00000-0  77579-5 0  9994,2 53243  53.2182 110.4875 0002170  46.5012 313.6161 15.08838948 22812,6917.884,95.438,541.25,538.247,0.0
53243.0,STARLINK-4047,PAYLOAD,2022-12-14 01:09:38,15.08857738,0.0002279,53.2188,108.7033,46.0851,314.0329,-0.00013446,-2.429e-05,0.0,0 STARLINK-4047,1 53243U 22086B   22348.04836563 -.00002429  00000-0 -13446-3 0  9999,2 53243  53.2188 108.7033 0002279  46.0851 314.0329 15.08857738 22358,6917.826,95.436,541.268,538.115,0.0
53243.0,STARLINK-4047,PAYLOAD,2022-12-14 20:14:17,15.08843478,0.0002101,53.2173,105.1343,45.0465,315.0697,-0.00010544,-1.966e-05,0.0,0 STARLINK-4047,1 53243U 22086B   22348.84325281 -.00001966  00000-0 -10544-3 0  9998,2 53243  53.2173 105.1343 0002101  45.0465 315.0697 15.08843478 22479,6917.87,95.437,541.188,538.281,0.0
53243.0,STARLINK-4047,PAYLOAD,2022-12-15 13:43:31,15.08836303,0.0002086,53.2173,101.8632,41.0575,319.0574,5.5426e-05,5.94e-06,0.0,0 STARLINK-4047,1 53243U 22086B   22349.57189695  .00000594  00000-0  55426-4 0  9999,2 53243  53.2173 101.8632 0002086  41.0575 319.0574 15.08836303 23101,6917.892,95.438,541.2,538.314,0.0
53243.0,STARLINK-4047,PAYLOAD,2022-12-15 16:54:17,15.08841823,0.0002044,53.2168,101.2677,45.3068,314.8091,9.4418e-05,1.215e-05,0.0,0 STARLINK-4047,1 53243U 22086B   22349.70437273  .00001215  00000-0  94418-4 0  9997,2 53243  53.2168 101.2677 0002044  45.3068 314.8091 15.08841823 23128,6917.875,95.437,541.154,538.326,0.0
53243.0,STARLINK-4047,PAYLOAD,2022-12-16 00:51:12,15.08852488,0.0002009,53.2172,99.7824,38.4108,321.7027,9.448e-05,1.216e-05,0.0,0 STARLINK-4047,1 53243U 22086B   22350.03556393  .00001216  00000-0  94480-4 0  9990,2 53243  53.2172  99.7824 0002009  38.4108 321.7027 15.08852488 22659,6917.842,95.437,541.097,538.317,0.0
53243.0,STARLINK-4047,PAYLOAD,2022-12-16 13:34:18,15.08839779,0.0002197,53.2172,97.4045,39.0977,321.0174,-1.9369e-06,-3.19e-06,0.0,0 STARLINK-4047,1 53243U 22086B   22350.56549254 -.00000319  00000-0 -19369-5 0  9995,2 53243  53.2172  97.4045 0002197  39.0977 321.0174 15.08839779 22731,6917.880999999999,95.438,541.266,538.226,0.0
53243.0,STARLINK-4047,PAYLOAD,2022-12-16 19:55:50,15.08842321,0.0002179,53.2171,96.2137,40.4971,319.6183,1.3811e-05,-6.8e-07,0.0,0 STARLINK-4047,1 53243U 22086B   22350.83045025 -.00000068  00000-0  13811-4 0  9997,2 53243  53.2171  96.2137 0002179  40.4971 319.6183 15.08842321 23291,6917.873000000001,95.437,541.246,538.231,0.0
53243.0,STARLINK-4047,PAYLOAD,2022-12-17 13:25:05,15.08843235,0.0002139,53.2175,92.9421,39.7989,320.316,9.6745e-05,1.252e-05,0.0,0 STARLINK-4047,1 53243U 22086B   22351.55908954  .00001252  00000-0  96745-4 0  9998,2 53243  53.2175  92.9421 0002139  39.7989 320.3160 15.08843235 23402,6917.871,95.437,541.215,538.256,0.0
